[{"OBJECT_NAME":"QIANFAN-60","OBJECT_ID":"2025-016F","EPOCH":"2026-03-09T22:52:30.176256","MEAN_MOTION":13.51009615,"ECCENTRICITY":0.00179638,"INCLINATION":88.9667,"RA_OF_ASC_NODE":94.0315,"ARG_OF_PERICENTER":92.0589,"MEAN_ANOMALY":268.262,"EPHEMERIS_TYPE":0,"CLASSIFICATION_TYPE":"U","NORAD_CAT_ID":62790,"ELEMENT_SET_NO":999,"REV_AT_EPOCH":5900,"BSTAR":4.4136125e-5,"MEAN_MOTION_DOT":4.1e-7,"MEAN_MOTION_DDOT":0},{"OBJECT_NAME":"DELTA 1 DEB","OBJECT_ID":"1975-052LS","EPOCH":"2026-03-08T19:00:16.867296","MEAN_MOTION":13.25537922,"ECCENTRICITY":0.01244436,"INCLINATION":99.6695,"RA_OF_ASC_NODE":278.7178,"ARG_OF_PERICENTER":255.751,"MEAN_ANOMALY":102.9763,"EPHEMERIS_TYPE":0,"CLASSIFICATION_TYPE":"U","NORAD_CAT_ID":42633,"ELEMENT_SET_NO":999,"REV_AT_EPOCH":59413,"BSTAR":0.00091803383,"MEAN_MOTION_DOT":3.77e-6,"MEAN_MOTION_DDOT":0}]
